{
  "type": "FeatureCollection",
  "features": [
    {
      "type": "Feature",
      "properties": {
        "norad_id": 33412,
        "name": "COSMO-SKYMED 3",
        "group": "resource",
        "lat": -39.2275391806142,
        "lon": 4.689039334460435,
        "alt_km": 547.3938302278966,
        "timestamp": "2025-12-06T20:37:55.715706+00:00",
        "meta_object_name": "COSMO-SKYMED 3",
        "meta_object_id": "2008-054A",
        "meta_epoch": "2025-12-06T14:52:24.872448",
        "meta_mean_motion": 15.05264505,
        "meta_eccentricity": 0.0015699,
        "meta_inclination": 97.8455,
        "meta_ra_of_asc_node": 190.9086,
        "meta_arg_of_pericenter": 194.7101,
        "meta_mean_anomaly": 165.367,
        "meta_ephemeris_type": 0,
        "meta_classification_type": "U",
        "meta_norad_cat_id": 33412,
        "meta_element_set_no": 999,
        "meta_rev_at_epoch": 92795,
        "meta_bstar": 0.00056171719,
        "meta_mean_motion_dot": 7.988e-05,
        "meta_mean_motion_ddot": 0,
        "tle_line1": "1 33412U 08054A   25340.61973232  .00007988  00000+0  56172-3 0  9992",
        "tle_line2": "2 33412  97.8455 190.9086 0015699 194.7101 165.3670 15.05264505927952"
      },
      "geometry": {
        "type": "Point",
        "coordinates": [
          4.689039334460435,
          -39.2275391806142
        ]
      }
    },
    {
      "type": "Feature",
      "properties": {
        "norad_id": 33446,
        "name": "YAOGAN-4",
        "group": "resource",
        "lat": -40.326245729574275,
        "lon": -82.1991435029733,
        "alt_km": 618.465909611421,
        "timestamp": "2025-12-06T20:37:55.715717+00:00",
        "meta_object_name": "YAOGAN-4",
        "meta_object_id": "2008-061A",
        "meta_epoch": "2025-12-06T12:43:00.354144",
        "meta_mean_motion": 14.82652178,
        "meta_eccentricity": 0.00141256,
        "meta_inclination": 97.9175,
        "meta_ra_of_asc_node": 270.6901,
        "meta_arg_of_pericenter": 344.238,
        "meta_mean_anomaly": 15.8391,
        "meta_ephemeris_type": 0,
        "meta_classification_type": "U",
        "meta_norad_cat_id": 33446,
        "meta_element_set_no": 999,
        "meta_rev_at_epoch": 91711,
        "meta_bstar": 0.00035047071,
        "meta_mean_motion_dot": 2.776e-05,
        "meta_mean_motion_ddot": 0,
        "tle_line1": "1 33446U 08061A   25340.52986521  .00002776  00000+0  35047-3 0  9990",
        "tle_line2": "2 33446  97.9175 270.6901 0014125 344.2380  15.8391 14.82652178917112"
      },
      "geometry": {
        "type": "Point",
        "coordinates": [
          -82.1991435029733,
          -40.326245729574275
        ]
      }
    },
    {
      "type": "Feature",
      "properties": {
        "norad_id": 33492,
        "name": "GOSAT (IBUKI)",
        "group": "resource",
        "lat": -28.817580276815498,
        "lon": 94.02496689303713,
        "alt_km": 675.0373185810586,
        "timestamp": "2025-12-06T20:37:55.715728+00:00",
        "meta_object_name": "GOSAT (IBUKI)",
        "meta_object_id": "2009-002A",
        "meta_epoch": "2025-12-06T14:13:08.846400",
        "meta_mean_motion": 14.67536449,
        "meta_eccentricity": 9.125e-05,
        "meta_inclination": 98.0767,
        "meta_ra_of_asc_node": 89.2809,
        "meta_arg_of_pericenter": 81.3926,
        "meta_mean_anomaly": 278.7382,
        "meta_ephemeris_type": 0,
        "meta_classification_type": "U",
        "meta_norad_cat_id": 33492,
        "meta_element_set_no": 999,
        "meta_rev_at_epoch": 90321,
        "meta_bstar": 0.00032130508,
        "meta_mean_motion_dot": 1.774e-05,
        "meta_mean_motion_ddot": 0,
        "tle_line1": "1 33492U 09002A   25340.59246350  .00001774  00000+0  32131-3 0  9991",
        "tle_line2": "2 33492  98.0767  89.2809 0000912  81.3926 278.7382 14.67536449903218"
      },
      "geometry": {
        "type": "Point",
        "coordinates": [
          94.02496689303713,
          -28.817580276815498
        ]
      }
    },
    {
      "type": "Feature",
      "properties": {
        "norad_id": 35681,
        "name": "DEIMOS-1",
        "group": "resource",
        "lat": -70.9925427612411,
        "lon": -61.4385715454453,
        "alt_km": 654.4372000602343,
        "timestamp": "2025-12-06T20:37:55.715739+00:00",
        "meta_object_name": "DEIMOS-1",
        "meta_object_id": "2009-041A",
        "meta_epoch": "2025-12-06T14:36:22.252032",
        "meta_mean_motion": 14.74938257,
        "meta_eccentricity": 0.00026899,
        "meta_inclination": 97.7153,
        "meta_ra_of_asc_node": 141.4978,
        "meta_arg_of_pericenter": 91.6314,
        "meta_mean_anomaly": 268.5204,
        "meta_ephemeris_type": 0,
        "meta_classification_type": "U",
        "meta_norad_cat_id": 35681,
        "meta_element_set_no": 999,
        "meta_rev_at_epoch": 87849,
        "meta_bstar": 0.00020547156,
        "meta_mean_motion_dot": 1.333e-05,
        "meta_mean_motion_ddot": 0,
        "tle_line1": "1 35681U 09041A   25340.60859088  .00001333  00000+0  20547-3 0  9995",
        "tle_line2": "2 35681  97.7153 141.4978 0002689  91.6314 268.5204 14.74938257878493"
      },
      "geometry": {
        "type": "Point",
        "coordinates": [
          -61.4385715454453,
          -70.9925427612411
        ]
      }
    },
    {
      "type": "Feature",
      "properties": {
        "norad_id": 35682,
        "name": "DUBAISAT-1",
        "group": "resource",
        "lat": -14.658881977579705,
        "lon": -70.47626424834489,
        "alt_km": 656.5419552755275,
        "timestamp": "2025-12-06T20:37:55.715751+00:00",
        "meta_object_name": "DUBAISAT-1",
        "meta_object_id": "2009-041B",
        "meta_epoch": "2025-12-06T14:51:56.601504",
        "meta_mean_motion": 14.74577225,
        "meta_eccentricity": 0.00098996,
        "meta_inclination": 97.979,
        "meta_ra_of_asc_node": 111.3897,
        "meta_arg_of_pericenter": 335.7467,
        "meta_mean_anomaly": 24.3274,
        "meta_ephemeris_type": 0,
        "meta_classification_type": "U",
        "meta_norad_cat_id": 35682,
        "meta_element_set_no": 999,
        "meta_rev_at_epoch": 87671,
        "meta_bstar": 0.00041114879,
        "meta_mean_motion_dot": 2.69e-05,
        "meta_mean_motion_ddot": 0,
        "tle_line1": "1 35682U 09041B   25340.61940511  .00002690  00000+0  41115-3 0  9990",
        "tle_line2": "2 35682  97.9790 111.3897 0009899 335.7467  24.3274 14.74577225876712"
      },
      "geometry": {
        "type": "Point",
        "coordinates": [
          -70.47626424834489,
          -14.658881977579705
        ]
      }
    },
    {
      "type": "Feature",
      "properties": {
        "norad_id": 35931,
        "name": "OCEANSAT-2",
        "group": "resource",
        "lat": 22.52620623115606,
        "lon": 165.49484797422113,
        "alt_km": 896.0852185575295,
        "timestamp": "2025-12-06T20:37:55.715762+00:00",
        "meta_object_name": "OCEANSAT-2",
        "meta_object_id": "2009-051A",
        "meta_epoch": "2025-12-06T14:44:18.370464",
        "meta_mean_motion": 13.99626034,
        "meta_eccentricity": 0.00164578,
        "meta_inclination": 98.2227,
        "meta_ra_of_asc_node": 341.836,
        "meta_arg_of_pericenter": 60.9941,
        "meta_mean_anomaly": 299.2873,
        "meta_ephemeris_type": 0,
        "meta_classification_type": "U",
        "meta_norad_cat_id": 35931,
        "meta_element_set_no": 999,
        "meta_rev_at_epoch": 85239,
        "meta_bstar": -7.6944124e-05,
        "meta_mean_motion_dot": -1.5e-06,
        "meta_mean_motion_ddot": 0,
        "tle_line1": "1 35931U 09051A   25340.61410151 -.00000150  00000+0 -76944-4 0  9990",
        "tle_line2": "2 35931  98.2227 341.8360 0016457  60.9941 299.2873 13.99626034852390"
      },
      "geometry": {
        "type": "Point",
        "coordinates": [
          165.49484797422113,
          22.52620623115606
        ]
      }
    },
    {
      "type": "Feature",
      "properties": {
        "norad_id": 35946,
        "name": "WORLDVIEW-2 (WV-2)",
        "group": "resource",
        "lat": -14.00912030833203,
        "lon": -130.10636288084146,
        "alt_km": 772.37167782087,
        "timestamp": "2025-12-06T20:37:55.715773+00:00",
        "meta_object_name": "WORLDVIEW-2 (WV-2)",
        "meta_object_id": "2009-055A",
        "meta_epoch": "2025-12-06T14:43:18.516864",
        "meta_mean_motion": 14.37648538,
        "meta_eccentricity": 0.00054083,
        "meta_inclination": 98.4767,
        "meta_ra_of_asc_node": 51.7832,
        "meta_arg_of_pericenter": 81.6399,
        "meta_mean_anomaly": 278.5401,
        "meta_ephemeris_type": 0,
        "meta_classification_type": "U",
        "meta_norad_cat_id": 35946,
        "meta_element_set_no": 999,
        "meta_rev_at_epoch": 84797,
        "meta_bstar": 0.00014444491,
        "meta_mean_motion_dot": 3.9e-06,
        "meta_mean_motion_ddot": 0,
        "tle_line1": "1 35946U 09055A   25340.61340876  .00000390  00000+0  14444-3 0  9996",
        "tle_line2": "2 35946  98.4767  51.7832 0005408  81.6399 278.5401 14.37648538847970"
      },
      "geometry": {
        "type": "Point",
        "coordinates": [
          -130.10636288084146,
          -14.00912030833203
        ]
      }
    }
  ]
}